     2.100          NAVIGATION                              RINEX VERSION / TYPE
fic2rin                                 09/30/2008 01:35:52 PGM / RUN BY / DATE
                                                            END OF HEADER
28 08  9 29  4  0  0.0 -.228444114327D-04 -.227373675443D-12  .000000000000D+00
     .710000000000D+02 -.376562500000D+02  .485948813147D-08  .156770710170D+01
    -.212900340557D-05  .140170494560D-01  .406242907047D-05  .515362923241D+04
     .100800000000D+06 -.286847352982D-06  .179999037980D+01 -.124797224998D-06
     .964282054035D+00  .306750000000D+03 -.209062868033D+01 -.849178228825D-08
    -.318584698903D-09  .100000000000D+01  .149900000000D+04  .000000000000D+00
     .240000000000D+01  .000000000000D+00 -.102445483208D-07  .710000000000D+02
     .936060000000D+05  .400000000000D+01
29 08  9 29  4  0  0.0 -.361911952496D-04  .136424205266D-11  .000000000000D+00
     .620000000000D+02 -.115312500000D+02  .416588781166D-08 -.249446658852D+01
    -.679865479469D-06  .343922746833D-02  .123716890812D-04  .515359827995D+04
     .100800000000D+06  .651925802231D-07  .284114749153D+01  .353902578354D-07
     .960254070025D+00  .137250000000D+03 -.137069479606D+01 -.776675208783D-08
    -.213580325049D-09  .100000000000D+01  .149900000000D+04  .000000000000D+00
     .340000000000D+01  .000000000000D+00 -.884756445885D-08  .620000000000D+02
     .936060000000D+05  .400000000000D+01
30 08  9 29  4  0  0.0  .991499982774D-04  .204636307899D-11  .000000000000D+00
     .710000000000D+02 -.385312500000D+02  .506413951317D-08  .199990564887D+01
    -.223331153393D-05  .111412832048D-01  .334717333317D-05  .515368086243D+04
     .100800000000D+06  .115483999252D-06  .173103962310D+01 -.208616256714D-06
     .949371378546D+00  .306843750000D+03  .140350678901D+01 -.844785188694D-08
    -.252153360342D-09  .100000000000D+01  .149900000000D+04  .000000000000D+00
     .240000000000D+01  .000000000000D+00 -.791624188423D-08  .710000000000D+02
     .936060000000D+05  .400000000000D+01
31 08  9 29  4  0  0.0 -.293022021651D-04 -.238742359215D-11  .000000000000D+00
     .890000000000D+02  .776250000000D+02  .446911472800D-08 -.182590053444D+01
     .404007732868D-05  .671987002715D-02  .827386975288D-05  .515354523849D+04
     .100800000000D+06  .186264514923D-08  .720990013111D+00  .193715095520D-06
     .969514838859D+00  .227750000000D+03 -.123924217228D+01 -.808212236712D-08
     .471448209139D-09  .100000000000D+01  .149900000000D+04  .000000000000D+00
     .240000000000D+01  .000000000000D+00 -.130385160446D-07  .890000000000D+02
     .936060000000D+05  .400000000000D+01
32 08  9 29  4  0  0.0  .316560268402D-03  .113686837722D-12  .000000000000D+00
     .500000000000D+02 -.594687500000D+02  .495163482689D-08 -.839313195826D+00
    -.308267772198D-05  .139572856715D-01  .387057662010D-05  .515374732208D+04
     .100800000000D+06 -.199303030968D-06 -.128460396743D+01 -.335276126862D-07
     .967042469269D+00  .310468750000D+03 -.128084627070D+01 -.871786313399D-08
    -.213580325049D-09  .100000000000D+01  .149900000000D+04  .000000000000D+00
     .240000000000D+01  .000000000000D+00 -.325962901115D-08  .500000000000D+02
     .936060000000D+05  .400000000000D+01
26 08  9 29  3 59 44.0  .332262367010D-03  .522959453519D-11  .000000000000D+00
     .130000000000D+02 -.406250000000D+02  .366765277246D-08 -.588511256165D+00
    -.205449759960D-05  .191763479961D-01  .118389725685D-04  .515363792801D+04
     .100784000000D+06 -.577419996262D-07 -.273579581471D+00  .299885869026D-06
     .993660480233D+00  .171125000000D+03  .954710429739D+00 -.784889836669D-08
    -.270725562521D-09  .100000000000D+01  .149900000000D+04  .000000000000D+00
     .240000000000D+01  .000000000000D+00 -.605359673500D-08  .130000000000D+02
     .960660000000D+05  .400000000000D+01
10 08  9 29  3 59 44.0 -.541377812624D-05 -.454747350886D-12  .000000000000D+00
     .600000000000D+01 -.497187500000D+02  .507378277199D-08  .105676955049D+01
    -.240467488766D-05  .804276962299D-02  .292807817459D-05  .515370632744D+04
     .100784000000D+06  .409781932831D-07 -.134450500755D+01  .819563865662D-07
     .961453194716D+00  .323375000000D+03  .557193455561D+00 -.865536053051D-08
    -.321441960776D-09  .100000000000D+01  .149900000000D+04  .000000000000D+00
     .240000000000D+01  .000000000000D+00 -.232830643654D-08  .600000000000D+01
     .972060000000D+05  .400000000000D+01
19 08  9 29  3 59 44.0  .356007367373D-04  .113686837722D-12  .000000000000D+00
     .500000000000D+01 -.189687500000D+02  .429446459597D-08  .562372345020D+00
    -.100582838058D-05  .491026323289D-02  .131335109472D-04  .515374315643D+04
     .100784000000D+06  .102445483208D-06  .288969831935D+01 -.987201929092D-07
     .957893814088D+00  .122906250000D+03 -.475847135046D+00 -.794711674360D-08
    -.207151485834D-09  .100000000000D+01  .149900000000D+04  .000000000000D+00
     .240000000000D+01  .000000000000D+00 -.144354999065D-07  .500000000000D+01
     .972960000000D+05  .400000000000D+01
 4 08  9 29  3 59 44.0 -.185125973076D-03 -.112549969344D-10  .000000000000D+00
     .700000000000D+01  .995937500000D+02  .504092426044D-08  .295337253388D+01
     .521168112755D-05  .833890959620D-02  .775605440140D-05  .515359554863D+04
     .100784000000D+06 -.113621354103D-06 -.240913007410D+01 -.106170773506D-06
     .942053268369D+00  .221281250000D+03  .403522978500D+00 -.825498671047D-08
     .559309011751D-09  .100000000000D+01  .149900000000D+04  .000000000000D+00
     .240000000000D+01  .000000000000D+00 -.605359673500D-08  .700000000000D+01
     .998160000000D+05  .400000000000D+01
 3 08  9 29  3 59 44.0  .289796851575D-03  .511590769747D-11  .000000000000D+00
     .100000000000D+01 -.378125000000D+02  .511021286088D-08 -.200889389655D+00
    -.190921127796D-05  .112483392004D-01  .116284936666D-04  .515370861244D+04
     .100784000000D+06  .614672899246D-07  .271081067487D+01  .160187482834D-06
     .926416748519D+00  .138156250000D+03  .854268361581D+00 -.849035365731D-08
    -.351800368183D-09  .100000000000D+01  .149900000000D+04  .000000000000D+00
     .240000000000D+01  .000000000000D+00 -.419095158577D-08  .100000000000D+01
     .100206000000D+06  .400000000000D+01
 3 08  9 29  5 59 44.0  .289833638817D-03  .511590769747D-11  .000000000000D+00
     .500000000000D+01 -.340312500000D+02  .507199698332D-08  .849290406846D+00
    -.170245766640D-05  .112486251164D-01  .116042792797D-04  .515370903206D+04
     .107984000000D+06 -.126659870148D-06  .271075070985D+01  .707805156708D-07
     .926413870959D+00  .140000000000D+03  .854251210329D+00 -.841249327125D-08
    -.506806824824D-09  .100000000000D+01  .149900000000D+04  .000000000000D+00
     .240000000000D+01  .000000000000D+00 -.419095158577D-08  .500000000000D+01
     .100806000000D+06  .400000000000D+01
 4 08  9 29  5 59 44.0 -.185206998140D-03 -.112549969344D-10  .000000000000D+00
     .800000000000D+01  .102843750000D+03  .499020786219D-08 -.227955780768D+01
     .502914190292D-05  .833852775395D-02  .779144465923D-05  .515359632683D+04
     .107984000000D+06  .186264514923D-07 -.240919023368D+01 -.169500708580D-06
     .942057244580D+00  .220750000000D+03  .403500377879D+00 -.833499004293D-08
     .639312344211D-09  .100000000000D+01  .149900000000D+04  .000000000000D+00
     .240000000000D+01  .000000000000D+00 -.605359673500D-08  .800000000000D+01
     .100806000000D+06  .400000000000D+01
10 08  9 29  5 59 44.0 -.541703775525D-05 -.454747350886D-12  .000000000000D+00
     .700000000000D+01 -.460625000000D+02  .506128225129D-08  .210703070718D+01
    -.236928462982D-05  .804255926050D-02  .276416540146D-05  .515370488167D+04
     .107984000000D+06 -.182539224625D-06 -.134456788670D+01 -.186264514923D-08
     .961451863461D+00  .328656250000D+03  .557098575083D+00 -.851571185644D-08
    -.163578242262D-09  .100000000000D+01  .149900000000D+04  .000000000000D+00
     .240000000000D+01  .000000000000D+00 -.232830643654D-08  .700000000000D+01
     .100806000000D+06  .400000000000D+01
19 08  9 29  5 59 44.0  .356012023985D-04  .113686837722D-12  .000000000000D+00
     .600000000000D+01 -.506250000000D+01  .417017370447D-08  .161213234401D+01
    -.214204192162D-06  .491129269358D-02  .128019601107D-04  .515374714851D+04
     .107984000000D+06  .558793544769D-07  .288964224570D+01  .745058059692D-07
     .957892588163D+00  .128750000000D+03 -.475472410043D+00 -.780139638805D-08
    -.290012080167D-09  .100000000000D+01  .149900000000D+04  .000000000000D+00
     .240000000000D+01  .000000000000D+00 -.144354999065D-07  .600000000000D+01
     .100806000000D+06  .400000000000D+01
26 08  9 29  5 59 44.0  .332300085574D-03  .522959453519D-11  .000000000000D+00
     .140000000000D+02 -.582187500000D+02  .378087177420D-08  .461669944738D+00
    -.281631946564D-05  .191738731228D-01  .118426978588D-04  .515363309479D+04
     .107984000000D+06 -.195577740669D-06 -.273636057423D+00  .182539224625D-06
     .993658433611D+00  .172187500000D+03  .954727935016D+00 -.785282710177D-08
    -.330370904131D-09  .100000000000D+01  .149900000000D+04  .000000000000D+00
     .240000000000D+01  .000000000000D+00 -.605359673500D-08  .140000000000D+02
     .100806000000D+06  .400000000000D+01
 1 08  9 29  6  0  0.0  .943429768085D-06  .250111042988D-11  .000000000000D+00
     .129000000000D+03 -.424375000000D+02  .372194074806D-08  .809826548801D+00
    -.219978392124D-05  .735604460351D-02  .126585364342D-04  .515367024231D+04
     .108000000000D+06 -.931322574615D-07 -.260807504959D+00  .651925802231D-07
     .991604976465D+00  .154718750000D+03 -.183178135540D+01 -.769674917193D-08
    -.209651589973D-09  .100000000000D+01  .149900000000D+04  .000000000000D+00
     .485000000000D+01  .630000000000D+02 -.372529029846D-08  .129000000000D+03
     .100806000000D+06  .400000000000D+01
